#aV2020  3 11  0  0  0.00000000     288 DD+AD WGS84 FIT  NGA
## 2096 259200.00000000   300.00000000 58919 0.0000000000000
+   31     1  2  3  4  5  6  7  8  9 10 11 12 13 14 15 16 17
+         19 20 21 22 23 24 25 26 27 28 29 30 31 32  0  0  0
+          0  0  0  0  0  0  0  0  0  0  0  0  0  0  0  0  0
+          0  0  0  0  0  0  0  0  0  0  0  0  0  0  0  0  0
+          0  0  0  0  0  0  0  0  0  0  0  0  0  0  0  0  0
++         2  2  2  2  2  2  2  2  2  2  2  2  2  2  2  2  2
++         2  2  2  2  2  2  2  2  2  2  2  2  2  2  0  0  0
++         0  0  0  0  0  0  0  0  0  0  0  0  0  0  0  0  0
++         0  0  0  0  0  0  0  0  0  0  0  0  0  0  0  0  0
++         0  0  0  0  0  0  0  0  0  0  0  0  0  0  0  0  0
%c cc cc ccc ccc cccc cccc cccc cccc ccccc ccccc ccccc ccccc
%c cc cc ccc ccc cccc cccc cccc cccc ccccc ccccc ccccc ccccc
%f  0.0000000  0.000000000  0.00000000000  0.000000000000000
%f  0.0000000  0.000000000  0.00000000000  0.000000000000000
%i    0    0    0    0      0      0      0      0         0
%i    0    0    0    0      0      0      0      0         0
/*      NGA, ST. LOUIS,MO.                                  
/*   EPHEMERIS COMPUTED FROM 2 DAYS OF DATA                 
/*   EPOCHA v5 SMOOTHER                                     
/*   G1762 IERS2010 SATAF SATAPC                            
*  2020  3 11  3 25  0.00000000
P  1  20166.497696  14672.536534  -9813.630183   -321.903217                    
V  1 -11858.821184  -2654.289303 -28630.976683     -0.124168                    
P  2   1268.344446 -15751.292093  21998.126281   -419.729076                    
V  2  25422.850914   7211.230108   3736.956628     -0.067382                    
P  3  12887.153511  18669.424912  13836.173052   -114.837263                    
V  3    945.956083  17709.106993 -24579.524936     -0.097000                    
P  4  13609.119155   8265.299656  21271.460908    -60.551306                    
V  4 -20945.567707  17024.717911   6763.012339     -0.053105                    
P  5  -1453.851875 -25875.918859   5175.666603     -8.918683                    
V  5   4476.768847   6020.395853  30759.290516     -0.006291                    
P  6  13524.963274  -9855.610921  20691.923170   -228.178370                    
V  6  24214.734590   9726.321613 -11183.844566     -0.086564                    
P  7  25495.495531   4927.646737  -6388.365974   -233.036664                    
V  7   6909.971108   5411.632458  29888.552454     -0.084809                    
P  8   3366.576519  15950.076776 -20891.700853    -26.676573                    
V  8 -20790.015295  16637.985836   9586.189937     -0.012958                    
P  9  20588.546099  -2094.475356  16606.763643   -173.886961                    
V  9 -14828.212512  15279.451547  20228.044823     -0.082100                    
P 10 -12540.437124  10983.592290 -20539.440934   -273.264820                    
V 10  -5481.123118 -25758.197791 -10612.256854     -0.126441                    
P 11  11317.121584  14186.194605 -19804.132140   -337.487082                    
V 11 -24055.624364   4262.714491 -11271.498236      0.107932                    
P 12 -10154.784870 -21436.789090  11891.964211    142.064051                    
V 12    297.807130 -15476.996342 -26951.640269     -0.042433                    
P 13   5799.919576 -18526.741570 -18210.110881     -6.697930                    
V 13  20094.815964 -11051.574947  17844.467616      0.028727                    
P 14 -17212.222291  18693.617185   7723.203327    -27.111370                    
V 14  -9262.206380   3182.026219 -29817.263050      0.024695                    
P 15  -6242.788960 -15740.313425 -20697.935068   -245.822720                    
V 15  18867.522586 -17626.821432   8214.563278      0.026281                    
P 16   -935.625600  25880.641212   4465.099126   -133.671667                    
V 16  -3057.236823  -5773.341113  31785.643157     -0.042569                    
P 17  21975.430436 -14691.109476  -1861.499040    230.028763                    
V 17  -1052.860797   3421.752756 -32191.153597      0.063183                    
P 19  19500.770932 -17193.714109   5139.502171   -187.431300                    
V 19   6898.768201  -2080.694451 -31342.860570      0.051475                    
P 20 -16482.120444   -831.578437 -20924.310638    527.873304                    
V 20  -7162.545749 -25474.818592   6470.425284     -0.000003                    
P 21 -25190.650950  -2441.343981  -6800.129301    -29.490237                    
V 21  -8404.293806  -5960.579497  30091.134581      0.052118                    
P 22  10804.313570  23599.978124   6149.718384   -785.418457                    
V 22  -1509.992451   8172.163642 -29662.912713     -0.001211                    
P 23  15017.042322   7207.829151  21116.949782   -130.561782                    
V 23 -19217.648447  17485.710192   7456.651327      0.026848                    
P 24 -19232.623022 -14711.768836 -11516.960179    -10.179852                    
V 24  14420.070696   1566.782666 -26168.435999     -0.004892                    
P 25 -15069.400260 -10681.228461  18951.386355     -9.628705                    
V 25  -2863.336123 -24316.118343 -15520.402824      0.018385                    
P 26  -5870.399681  21655.921658  14005.243627    165.127211                    
V 26  -6150.311773 -17077.047072  23992.625985      0.075795                    
P 27  -7572.772402  19999.651275 -15655.725628   -235.019756                    
V 27 -16306.891756  11275.298436  22799.445915     -0.108040                    
P 28  12321.690037 -12118.322781 -19624.634541    733.721439                    
V 28   3013.683582  25975.014199 -13607.434754     -0.025856                    
P 29 -19561.036832   -533.073725  17930.548617    -53.547547                    
V 29  17786.121881 -14273.579832  18924.252245     -0.092669                    
P 30  21000.152261  -3931.100090 -15875.109124   -172.590644                    
V 30  17823.224134   9761.967482  20915.805698     -0.087527                    
P 31 -11543.332975  11352.760476  21092.067870    -28.639590                    
V 31 -24685.874902 -10441.764563  -7422.189105     -0.024523                    
P 32 -21009.397795  16010.540205  -1824.574053    233.224585                    
V 32   -117.563450  -3886.469581 -31658.657597      0.092394                    
EOF
